#aV2006  4  6  0  0   .00000000      96 DD+AD WGS84 FIT  NGA
## 1369 345600.00000000   900.00000000 53831  .0000000000000
+   29     1  2  3  4  5  6  7  8  9 10 11 13 14 15 16 17 18
+         19 20 21 22 23 24 25 26 27 28 29 30  0  0  0  0  0
+          0  0  0  0  0  0  0  0  0  0  0  0  0  0  0  0  0
+          0  0  0  0  0  0  0  0  0  0  0  0  0  0  0  0  0
+          0  0  0  0  0  0  0  0  0  0  0  0  0  0  0  0  0
++         0  0  0  0  0  0  0  0  0  0  0  0  0  0  0  0  0
++         0  0  0  0  0  0  0  0  0  0  0  0  0  0  0  0  0
++         0  0  0  0  0  0  0  0  0  0  0  0  0  0  0  0  0
++         0  0  0  0  0  0  0  0  0  0  0  0  0  0  0  0  0
++         0  0  0  0  0  0  0  0  0  0  0  0  0  0  0  0  0
%c cc cc ccc ccc cccc cccc cccc cccc ccccc ccccc ccccc ccccc
%c cc cc ccc ccc cccc cccc cccc cccc ccccc ccccc ccccc ccccc
%f  0.0000000  0.000000000  0.00000000000  0.000000000000000
%f  0.0000000  0.000000000  0.00000000000  0.000000000000000
%i    0    0    0    0      0      0      0      0         0
%i    0    0    0    0      0      0      0      0         0
/*      NGA, ST. LOUIS,MO.                                  
/*   EPHEMERIS COMPUTED FROM  3 DAYS OF DATA                
/* CCCCCCCCCCCCCCCCCCCCCCCCCCCCCCCCCCCCCCCCCCCCCCCCCCCCCCCCC
/* CCCCCCCCCCCCCCCCCCCCCCCCCCCCCCCCCCCCCCCCCCCCCCCCCCCCCCCCC
*  2006  4  6 21  0   .00000000                                                 
P  1 -18849.536892 -11859.639781 -14309.714534     45.611973                    
V  1  -8688.159597 -16341.752727  24609.555827       .021268                    
P  2  16476.978605    253.809114 -21065.550835    -10.566052                    
V  2 -10294.354191  24112.887618  -8052.023185       .021039                    
P  3 -20358.078278  -5236.328722  16245.787925     88.126848                    
V  3 -11670.344740 -17520.982464 -19767.814418       .032965                    
P  4  11558.619468  10940.632278 -21253.333570    197.934988                    
V  4 -12531.197661  23922.727311   5856.350480       .102822                    
P  5  17418.255884 -13809.468554 -14606.408555   -208.252555                    
V  5  18530.649982   -430.118392  22975.975227       .691720                    
P  6  -1556.120388 -21292.317101 -15555.466773    455.209875                    
V  6  14183.745458  14634.844176 -21265.323206       .246275                    
P  7 -16013.547556 -21122.646263   -689.962826    524.847834                    
V  7   3719.176245  -1249.058578 -31242.937316       .051636                    
P  8   4223.457792  18671.921139  18088.891910    -61.846333                    
V  8 -12214.011569  20007.933912 -18049.821079      -.011135                    
P  9  14855.284471 -19881.833628   8501.880489     15.001404                    
V  9  -1777.674156  11877.537098  29334.377123       .015231                    
P 10  26697.435789  -1214.255324   -745.956664     81.355383                    
V 10   -686.339583   2167.442231 -31827.502091       .006043                    
P 11 -13367.082709  21202.160554   8348.465764    318.741275                    
V 11  -1240.936433 -11742.569281  27860.902894       .025649                    
P 13   2869.286851  21904.822038 -14869.324058     52.705440                    
V 13 -11398.842866 -14827.061628 -24112.866539       .027036                    
P 14 -15712.736272 -21395.323723  -1388.470722    -16.445781                    
V 14    598.780856  -2634.686823  32207.941733       .006963                    
P 15  -3625.420167 -19080.105937  17772.374728    592.425602                    
V 15  12995.193892 -19148.008219 -18124.484557       .060754                    
P 16 -25568.213106  -2746.360769  -6764.720404     35.299738                    
V 16   8454.820297  -3240.299328 -30152.104607       .021679                    
P 17  15277.816068  21787.424769    -70.684349     79.134846                    
V 17  -2213.618411   1633.141776  31691.725072       .048150                    
P 18    -56.023906 -15316.147168  21789.469697   -229.531609                    
V 18  27439.095831   -949.507152   -892.649402      -.018638                    
P 19 -14023.939561   6344.851823  21750.427249    -16.242873                    
V 19 -14153.207125 -23435.733981  -2261.520079       .014469                    
P 20 -17109.167534  12811.355585 -15838.256449    -29.126202                    
V 20 -20062.868761    -93.705884  21756.872549       .007384                    
P 21   3039.839225 -23632.113322  11217.426465     19.408389                    
V 21   9481.772589 -11307.759358 -27021.166017       .029434                    
P 22 -14724.715329 -12495.963287  18388.476974     82.995050                    
V 22  22986.277553  -2326.741197  16963.570780       .038056                    
P 23  -7476.791130  14514.218596 -21007.856981    144.806021                    
V 23 -15855.702275 -21222.648567  -9209.520919      -.011256                    
P 24    715.845019  21423.586732 -15284.589249     98.710507                    
V 24 -11335.240324  16547.142245  22569.579927       .029917                    
P 25 -13653.539555  -6820.200514 -21329.821860      4.988157                    
V 25   9767.071926 -26325.860361   2248.535446       .097958                    
P 26  15608.494694  -1589.076048  21159.419632    -79.473594                    
V 26  14966.184684  23146.221126  -8566.449500      -.102994                    
P 27  -1336.701708  24258.907542  10913.863520     43.184678                    
V 27  -7278.707615  11205.590088 -27646.325010       .015984                    
P 28  11573.190782  13379.826566  20194.854053     29.987134                    
V 28 -24809.338101   2567.589734  12352.725177      -.007444                    
P 29  17494.477378   1464.718459  20256.737176    579.452245                    
V 29  14007.885153  20762.070509 -13500.236313       .088147                    
P 30   7240.353878 -15738.955822 -20382.065479    105.922613                    
V 30  25304.641949  -1925.797073  10737.206834       .565732                    
EOF
